{
  "links" : {
    "next" : "https://api.nasa.gov/neo/rest/v1/feed?start_date=2002-03-09&end_date=2002-03-09&detailed=true&api_key=t0TVs3DtDT2H8Oy2Zy8m2eVrNsAVKAexjcZXUckd",
    "prev" : "https://api.nasa.gov/neo/rest/v1/feed?start_date=2002-03-07&end_date=2002-03-07&detailed=true&api_key=t0TVs3DtDT2H8Oy2Zy8m2eVrNsAVKAexjcZXUckd",
    "self" : "https://api.nasa.gov/neo/rest/v1/feed?start_date=2002-03-08&end_date=2002-03-08&detailed=true&api_key=t0TVs3DtDT2H8Oy2Zy8m2eVrNsAVKAexjcZXUckd"
  },
  "element_count" : 7,
  "near_earth_objects" : {
    "2002-03-08" : [ {
      "links" : {
        "self" : "https://api.nasa.gov/neo/rest/v1/neo/3150768?api_key=t0TVs3DtDT2H8Oy2Zy8m2eVrNsAVKAexjcZXUckd"
      },
      "neo_reference_id" : "3150768",
      "name" : "(2003 EM1)",
      "nasa_jpl_url" : "http://ssd.jpl.nasa.gov/sbdb.cgi?sstr=3150768",
      "absolute_magnitude_h" : 24.5,
      "estimated_diameter" : {
        "kilometers" : {
          "estimated_diameter_min" : 0.0334622374,
          "estimated_diameter_max" : 0.0748238376
        },
        "meters" : {
          "estimated_diameter_min" : 33.4622374455,
          "estimated_diameter_max" : 74.8238376074
        },
        "miles" : {
          "estimated_diameter_min" : 0.0207924639,
          "estimated_diameter_max" : 0.0464933628
        },
        "feet" : {
          "estimated_diameter_min" : 109.7842471007,
          "estimated_diameter_max" : 245.4850393757
        }
      },
      "is_potentially_hazardous_asteroid" : false,
      "close_approach_data" : [ {
        "close_approach_date" : "2002-03-08",
        "epoch_date_close_approach" : 1015574400000,
        "relative_velocity" : {
          "kilometers_per_second" : "14.6636971983",
          "kilometers_per_hour" : "52789.3099137374",
          "miles_per_hour" : "32801.2242627887"
        },
        "miss_distance" : {
          "astronomical" : "0.3939314703",
          "lunar" : "153.2393493652",
          "kilometers" : "58931312",
          "miles" : "36618220"
        },
        "orbiting_body" : "Earth"
      } ],
      "orbital_data" : {
        "orbit_id" : "14",
        "orbit_determination_date" : "2017-04-06 09:14:18",
        "orbit_uncertainty" : "5",
        "minimum_orbit_intersection" : ".0119604",
        "jupiter_tisserand_invariant" : "6.260",
        "epoch_osculation" : "2458000.5",
        "eccentricity" : ".05179046430244431",
        "semi_major_axis" : ".9577259428219536",
        "inclination" : "15.2670628659249",
        "ascending_node_longitude" : "346.0135121767952",
        "orbital_period" : "342.3420953155494",
        "perihelion_distance" : ".9081248715687084",
        "perihelion_argument" : "23.81002917084772",
        "aphelion_distance" : "1.007327014075199",
        "perihelion_time" : "2458035.740513622795",
        "mean_anomaly" : "322.9417910394202",
        "mean_motion" : "1.051579706165479",
        "equinox" : "J2000"
      }
    } ]
  }
}